[{"OBJECT_NAME":"TIANHUI 6B","OBJECT_ID":"2023-030D","EPOCH":"2026-03-09T23:26:56.388192","MEAN_MOTION":14.01332355,"ECCENTRICITY":0.00011349,"INCLINATION":99.0142,"RA_OF_ASC_NODE":78.4435,"ARG_OF_PERICENTER":126.6393,"MEAN_ANOMALY":233.4876,"EPHEMERIS_TYPE":0,"CLASSIFICATION_TYPE":"U","NORAD_CAT_ID":55839,"ELEMENT_SET_NO":999,"REV_AT_EPOCH":15349,"BSTAR":-9.0839833e-5,"MEAN_MOTION_DOT":-1.81e-6,"MEAN_MOTION_DDOT":0},{"OBJECT_NAME":"COSMOS 2251 DEB","OBJECT_ID":"1993-036RZ","EPOCH":"2026-03-09T16:52:43.574304","MEAN_MOTION":14.03193848,"ECCENTRICITY":0.01803368,"INCLINATION":73.8283,"RA_OF_ASC_NODE":309.0777,"ARG_OF_PERICENTER":15.714,"MEAN_ANOMALY":39.3157,"EPHEMERIS_TYPE":0,"CLASSIFICATION_TYPE":"U","NORAD_CAT_ID":34432,"ELEMENT_SET_NO":999,"REV_AT_EPOCH":86904,"BSTAR":0.0010108958,"MEAN_MOTION_DOT":1.793e-5,"MEAN_MOTION_DDOT":0}]
